2023-039A               
1 55973U 23039A   23109.18455874  .00116754  00000+0  55912-2 0  9990
2 55973  97.4231 259.3810 0015576 153.3932 324.1207 15.18323583  4221
2023-039B               
1 55974U 23039B   23109.36674902  .00011931  00000+0  57467-3 0  9995
2 55974  97.4134 259.5369 0014306 155.6302 258.9086 15.18805008  4249
2023-039C               
1 55975U 23039C   23109.36929892  .00012007  00000+0  57031-3 0  9999
2 55975  97.4177 259.5659 0011876 157.7920 286.1690 15.19314724  4231
2023-039D               
1 55976U 23039D   23109.62219713  .00011462  00000+0  53788-3 0  9992
2 55976  97.4190 259.8341 0011843 165.2995 256.9688 15.19747084  4273
COSMOS 2567             
1 55978U 23040A   23109.67849013  .00006415  00000+0  28676-3 0  9993
2 55978  97.6331   4.3852 0008897 207.9014 236.1380 15.21650089  4185
SL-4 R/B                
1 55979U 23040B   23109.63329970  .00069210  00000+0  87141-3 0  9999
2 55979  97.6410   5.4638 0103007 337.4163 107.6894 15.53175774  4248
2023-041A               
1 55981U 23041A   23109.36372476  .00343076  00000+0  58452-2 0  9999
2 55981  42.0121 102.2508 0012859 137.3731 222.8112 15.49283542  4014
2023-041B               
1 55982U 23041B   23109.11613927  .00030795  00000+0  77924-3 0  9999
2 55982  42.0153 104.7552 0004627 110.6208 249.5129 15.39139165  3960
2023-041C               
1 55983U 23041C   23109.23685761  .00028255  00000+0  70240-3 0  9990
2 55983  42.0153 103.9264 0006500  98.9665 261.1911 15.39704082  3986
STARLINK-5905           
1 55986U 23042A   23109.58334491 -.00046503  00000+0 -83920-3 0  9990
2 55986  43.0024  38.8731 0001606 260.8957  65.7868 15.48932059  1308
STARLINK-5915           
1 55987U 23042B   23109.58334491 -.00055494  00000+0 -10037-2 0  9998
2 55987  43.0024  38.8589 0001693 266.7218  65.9811 15.48934229  1302
STARLINK-5916           
1 55988U 23042C   23109.58334491 -.00051506  00000+0 -93066-3 0  9993
2 55988  43.0025  38.8697 0001482 259.4186  68.9811 15.48934983  1303
STARLINK-5947           
1 55989U 23042D   23109.58334491 -.00060326  00000+0 -10921-2 0  9992
2 55989  43.0023  38.8656 0001364 262.4438  67.6712 15.48940429  1308
STARLINK-5946           
1 55990U 23042E   23109.58334491 -.00045562  00000+0 -82201-3 0  9990
2 55990  43.0026  38.8718 0001561 260.8667  66.6753 15.48931795  1307
STARLINK-5948           
1 55991U 23042F   23109.58334491 -.00052236  00000+0 -94410-3 0  9992
2 55991  43.0021  38.8535 0001617 266.7723  67.6508 15.48932183  1301
STARLINK-5962           
1 55992U 23042G   23109.58334491 -.00037217  00000+0 -66968-3 0  9992
2 55992  43.0026  38.8615 0001406 263.6416  68.1896 15.48929958  1309
STARLINK-5969           
1 55993U 23042H   23109.58334491 -.00050169  00000+0 -90615-3 0  9990
2 55993  43.0025  38.8670 0001489 260.8705  68.3872 15.48936004  1307
STARLINK-5956           
1 55994U 23042J   23109.58334491 -.00051709  00000+0 -93447-3 0  9998
2 55994  43.0026  38.8572 0001652 267.3543  66.2095 15.48931916  1305
STARLINK-5957           
1 55995U 23042K   23109.58334491 -.00048393  00000+0 -87365-3 0  9996
2 55995  43.0021  38.8619 0001436 260.0310  70.9423 15.48936521  1309
STARLINK-5903           
1 55996U 23042L   23109.58334491 -.00052348  00000+0 -94616-3 0  9999
2 55996  43.0023  38.8478 0001668 263.7901  73.2117 15.48931654  1306
STARLINK-5904           
1 55997U 23042M   23109.58334491 -.00045128  00000+0 -81414-3 0  9990
2 55997  43.0024  38.8526 0001668 260.6723  74.6113 15.48929329  1307
STARLINK-5902           
1 55998U 23042N   23109.58334491 -.00043689  00000+0 -78786-3 0  9999
2 55998  43.0024  38.8442 0001543 260.0982  78.6231 15.48928932  1302
STARLINK-5901           
1 55999U 23042P   23109.58334491 -.00049598  00000+0 -89586-3 0  9995
2 55999  43.0026  38.8509 0001575 262.0142  74.1282 15.48931061  1308
STARLINK-5910           
1 56000U 23042Q   23109.58334491 -.00044301  00000+0 -79915-3 0  9991
2 56000  43.0028  38.8368 0001489 255.7715  86.3872 15.48925329  1306
STARLINK-5944           
1 56001U 23042R   23109.58334491 -.00035629  00000+0 -64085-3 0  9997
2 56001  43.0029  38.8424 0001599 259.0640  80.5167 15.48923174  1306
STARLINK-5799           
1 56002U 23042S   23109.58334491 -.00036803  00000+0 -66227-3 0  9993
2 56002  43.0029  38.8390 0001521 260.5356  80.7641 15.48923360  1301
STARLINK-5789           
1 56003U 23042T   23109.58334491 -.00049341  00000+0 -89120-3 0  9992
2 56003  43.0022  38.8466 0001409 262.7811  75.0810 15.48930124  1305
STARLINK-5787           
1 56004U 23042U   23109.58334491 -.00037374  00000+0 -67270-3 0  9998
2 56004  43.0033  38.8351 0001473 258.8626  84.1562 15.48923462  1304
STARLINK-5801           
1 56005U 23042V   23109.58334491 -.00038599  00000+0 -69502-3 0  9999
2 56005  43.0028  38.8388 0001576 262.4028  78.0367 15.48924447  1309
STARLINK-5794           
1 56006U 23042W   23109.58334491 -.00035641  00000+0 -64114-3 0  9999
2 56006  43.0027  38.8279 0001408 258.8385  86.7604 15.48920868  1300
STARLINK-5806           
1 56007U 23042X   23109.58334491 -.00040771  00000+0 -73471-3 0  9996
2 56007  43.0026  38.8313 0001442 262.6666  81.2118 15.48923785  1303
STARLINK-5803           
1 56008U 23042Y   23109.58334491 -.00035427  00000+0 -63722-3 0  9997
2 56008  43.0028  38.8260 0001411 255.4030  91.0549 15.48921368  1300
STARLINK-5964           
1 56009U 23042Z   23109.58334491 -.00040492  00000+0 -72963-3 0  9993
2 56009  43.0033  38.8312 0001419 256.7706  87.9679 15.48922908  1306
STARLINK-5968           
1 56010U 23042AA  23109.58334491 -.00036564  00000+0 -65795-3 0  9995
2 56010  43.0032  38.8249 0001343 256.5168  90.7997 15.48922418  1303
STARLINK-5936           
1 56011U 23042AB  23109.24699423  .00031355  00000+0  24156-3 0  9995
2 56011  43.0024  39.6763 0002689 234.8046 125.2570 15.71362137  4040
STARLINK-5940           
1 56012U 23042AC  23109.24720255  .00016617  00000+0  12980-3 0  9990
2 56012  43.0026  39.6785 0001473 262.9133  97.1568 15.71376043  4041
STARLINK-5941           
1 56013U 23042AD  23109.58334491 -.00039487  00000+0 -71129-3 0  9993
2 56013  43.0032  38.8227 0001260 262.4552  85.7213 15.48922624  1307
STARLINK-5942           
1 56014U 23042AE  23109.18333063 -.00003713  00000+0 -24894-4 0  9995
2 56014  42.9995  40.0578 0001064 215.4293 144.6504 15.71351047  4032
STARLINK-5939           
1 56015U 23042AF  23109.24709633  .00007301  00000+0  59034-4 0  9992
2 56015  43.0016  39.6794 0001797 251.6737 108.3936 15.71371831  4041
STARLINK-5943           
1 56016U 23042AG  23109.24625584  .00003344  00000+0  28917-4 0  9994
2 56016  43.0029  39.6712 0001030 272.5413  87.5337 15.71369279  4045
STARLINK-5934           
1 56017U 23042AH  23109.24667908  .00008918  00000+0  71345-4 0  9996
2 56017  43.0024  39.6724 0001480 258.8168 101.2533 15.71368085  4043
STARLINK-5945           
1 56018U 23042AJ  23109.18280179  .00002380  00000+0  21586-4 0  9990
2 56018  43.0025  40.0565 0001694 251.3139 108.7545 15.71360264  4032
STARLINK-5949           
1 56019U 23042AK  23109.24677665  .00008737  00000+0  69936-4 0  9991
2 56019  43.0023  39.6739 0001537 263.6225  96.4468 15.71378141  4047
STARLINK-5912           
1 56020U 23042AL  23109.24646295  .00013922  00000+0  10932-3 0  9991
2 56020  43.0021  39.6740 0001481 281.0359  79.0342 15.71381081  4044
STARLINK-5907           
1 56021U 23042AM  23109.24657000  .00012318  00000+0  97147-4 0  9990
2 56021  43.0024  39.6741 0001661 282.7856  77.2826 15.71379024  4040
STARLINK-5783           
1 56022U 23042AN  23109.18228179  .00002329  00000+0  21195-4 0  9996
2 56022  43.0013  40.0512 0001269 263.7733  96.2990 15.71357256  4033
STARLINK-5771           
1 56023U 23042AP  23109.24615437  .00004990  00000+0  41469-4 0  9993
2 56023  43.0006  39.6745 0001867 240.3825 119.6856 15.71361996  4043
STARLINK-5772           
1 56024U 23042AQ  23109.24552385  .00029921  00000+0  23063-3 0  9996
2 56024  43.0016  39.6680 0000786 280.9770  79.1009 15.71372701  4047
STARLINK-5766           
1 56025U 23042AR  23109.24604864  .00027409  00000+0  21164-3 0  9996
2 56025  43.0027  39.6704 0001805 252.4128 107.6543 15.71370387  4049
STARLINK-5770           
1 56026U 23042AS  23109.24573403  .00014998  00000+0  11755-3 0  9995
2 56026  43.0021  39.6666 0001517 251.5037 108.5666 15.71367416  4045
STARLINK-5777           
1 56027U 23042AT  23109.18228367 -.00056571  00000+0 -43014-3 0  9993
2 56027  43.0031  40.0523 0000961 326.4569  33.6238 15.71397565  4039
STARLINK-5779           
1 56028U 23042AU  23109.24531349  .00025345  00000+0  19611-3 0  9997
2 56028  43.0020  39.6655 0002253 242.8095 117.2543 15.71357372  4387
STARLINK-5774           
1 56029U 23042AV  23109.24562103  .00009432  00000+0  75250-4 0  9991
2 56029  43.0023  39.6655 0002145 259.8655 100.1971 15.71368791  4047
STARLINK-5781           
1 56030U 23042AW  23109.18164936  .00002903  00000+0  25577-4 0  9991
2 56030  43.0002  40.0455 0001283 242.5888 117.4849 15.71354165  4033
STARLINK-5785           
1 56031U 23042AX  23109.24541691  .00019432  00000+0  15119-3 0  9991
2 56031  43.0024  39.6667 0001491 267.8808  92.1889 15.71370216  4049
STARLINK-5786           
1 56032U 23042AY  23109.24488848  .00007002  00000+0  56770-4 0  9995
2 56032  43.0018  39.6621 0001891 252.8982 107.1679 15.71367219  4047
STARLINK-5784           
1 56033U 23042AZ  23109.24499547  .00012007  00000+0  94833-4 0  9997
2 56033  43.0017  39.6628 0001687 255.1725 104.8956 15.71366674  4381
STARLINK-5782           
1 56034U 23042BA  23109.24478209  .00012041  00000+0  95091-4 0  9995
2 56034  43.0030  39.6624 0002162 265.9327  94.1294 15.71365575  4384
STARLINK-5792           
1 56035U 23042BB  23109.24509650  .00020428  00000+0  15865-3 0  9999
2 56035  43.0031  39.6626 0001767 277.6462  82.4206 15.71383679  4049
